[{"OBJECT_NAME":"GOES 19","OBJECT_ID":"2024-119A","EPOCH":"2026-03-15T06:24:02.132640","MEAN_MOTION":1.00271252,"ECCENTRICITY":0.00010523,"INCLINATION":0.0272,"RA_OF_ASC_NODE":311.4581,"ARG_OF_PERICENTER":89.9025,"MEAN_ANOMALY":152.3273,"EPHEMERIS_TYPE":0,"CLASSIFICATION_TYPE":"U","NORAD_CAT_ID":60133,"ELEMENT_SET_NO":999,"REV_AT_EPOCH":602,"BSTAR":0,"MEAN_MOTION_DOT":-2.49e-6,"MEAN_MOTION_DDOT":0},{"OBJECT_NAME":"FENGYUN 3H","OBJECT_ID":"2025-219A","EPOCH":"2026-03-15T06:01:27.374592","MEAN_MOTION":14.19934283,"ECCENTRICITY":0.00011771,"INCLINATION":98.6691,"RA_OF_ASC_NODE":16.8855,"ARG_OF_PERICENTER":59.733,"MEAN_ANOMALY":300.3963,"EPHEMERIS_TYPE":0,"CLASSIFICATION_TYPE":"U","NORAD_CAT_ID":65815,"ELEMENT_SET_NO":999,"REV_AT_EPOCH":2405,"BSTAR":6.0720195e-5,"MEAN_MOTION_DOT":8.6e-7,"MEAN_MOTION_DDOT":0}]
