GOES 19                 
1 60133U 24119A   26074.26669135 -.00000249  00000+0  00000+0 0  9991
2 60133   0.0272 311.4581 0001052  89.9025 152.3273  1.00271252  6021
FENGYUN 3H              
1 65815U 25219A   26074.25101128  .00000086  00000+0  60720-4 0  9995
2 65815  98.6691  16.8855 0001177  59.7330 300.3963 14.19934283 24051
